LEMUR-2-ANDIS           
1 42838U 17042P   26068.55941107  .00023598  00000+0  79875-3 0  9998
2 42838  97.3659 249.7950 0009101   4.3248 355.8070 15.30557934473198
STARLINK-34252          
1 64330U 25124P   26068.52780726  .00027121  00000+0  99127-3 0  9992
2 64330  42.9998 122.8081 0001959 261.2103  98.8527 15.27585690 41754
